[{"OBJECT_NAME":"SHIJIAN-6 05A (SJ-6 05A)","OBJECT_ID":"2021-122A","EPOCH":"2026-03-09T21:12:10.842048","MEAN_MOTION":14.99085264,"ECCENTRICITY":0.0003221,"INCLINATION":97.4012,"RA_OF_ASC_NODE":42.3306,"ARG_OF_PERICENTER":76.6317,"MEAN_ANOMALY":283.5266,"EPHEMERIS_TYPE":0,"CLASSIFICATION_TYPE":"U","NORAD_CAT_ID":49961,"ELEMENT_SET_NO":999,"REV_AT_EPOCH":23387,"BSTAR":0.00027617,"MEAN_MOTION_DOT":3.299e-5,"MEAN_MOTION_DDOT":0},{"OBJECT_NAME":"STARLINK-5557","OBJECT_ID":"2023-028AF","EPOCH":"2026-03-09T19:58:10.638912","MEAN_MOTION":14.98330265,"ECCENTRICITY":0.00030854,"INCLINATION":69.9998,"RA_OF_ASC_NODE":224.127,"ARG_OF_PERICENTER":269.1629,"MEAN_ANOMALY":90.9177,"EPHEMERIS_TYPE":0,"CLASSIFICATION_TYPE":"U","NORAD_CAT_ID":55770,"ELEMENT_SET_NO":999,"REV_AT_EPOCH":16655,"BSTAR":6.873398e-6,"MEAN_MOTION_DOT":-1.1e-7,"MEAN_MOTION_DDOT":0}]
